{
  "norad_id": 47568,
  "name": "STARLINK-1967",
  "history": [
    {
      "epoch": "2026-04-13T06:36:48.028032Z",
      "apogee_km": 361.67741233194465,
      "perigee_km": 357.59930641792926,
      "latitude_deg": 5.004183007890494e-05,
      "longitude_deg": -105.81764873708336,
      "height_km": 358.5637100999121,
      "semi_major_axis_km": 6737.775359374937,
      "eccentricity": 0.00030263,
      "inclination_deg": 53.0419,
      "raan_deg": 194.8511,
      "arg_perigee_deg": 345.9064,
      "mean_anomaly_deg": 14.1868,
      "mean_motion_rev_day": 15.69740889
    },
    {
      "epoch": "2026-04-14T10:06:58.923648Z",
      "apogee_km": 361.3779357401527,
      "perigee_km": 357.05322911749045,
      "latitude_deg": -5.182191096533634e-05,
      "longitude_deg": -165.15813145126484,
      "height_km": 357.983415499051,
      "semi_major_axis_km": 6737.352582428821,
      "eccentricity": 0.00032095,
      "inclination_deg": 53.0427,
      "raan_deg": 189.1856,
      "arg_perigee_deg": 350.8935,
      "mean_anomaly_deg": 9.2022,
      "mean_motion_rev_day": 15.69888646
    },
    {
      "epoch": "2026-04-15T12:05:21.630912Z",
      "apogee_km": 361.1692719429693,
      "perigee_km": 356.5972605094976,
      "latitude_deg": -5.648620456033609e-06,
      "longitude_deg": 158.82901922535177,
      "height_km": 357.5120188080415,
      "semi_major_axis_km": 6737.020266226234,
      "eccentricity": 0.00033932,
      "inclination_deg": 53.0424,
      "raan_deg": 183.834,
      "arg_perigee_deg": 354.1266,
      "mean_anomaly_deg": 5.971,
      "mean_motion_rev_day": 15.70004804
    },
    {
      "epoch": "2026-04-16T14:03:37.404576Z",
      "apogee_km": 360.93332385589474,
      "perigee_km": 356.1664442167503,
      "latitude_deg": 6.524595346523232e-05,
      "longitude_deg": 122.84555771716109,
      "height_km": 357.0694144536393,
      "semi_major_axis_km": 6736.686884036322,
      "eccentricity": 0.0003538,
      "inclination_deg": 53.0419,
      "raan_deg": 178.4828,
      "arg_perigee_deg": 358.7734,
      "mean_anomaly_deg": 1.3274,
      "mean_motion_rev_day": 15.70121349
    },
    {
      "epoch": "2026-04-17T11:26:48.676992Z",
      "apogee_km": 360.7282460897786,
      "perigee_km": 355.8246760032125,
      "latitude_deg": 2.4704026496685865e-09,
      "longitude_deg": 156.76303094808054,
      "height_km": 356.7280881326972,
      "semi_major_axis_km": 6736.413461046495,
      "eccentricity": 0.00036396,
      "inclination_deg": 53.0415,
      "raan_deg": 174.0756,
      "arg_perigee_deg": 1.8026,
      "mean_anomaly_deg": 358.3003,
      "mean_motion_rev_day": 15.70216944
    },
    {
      "epoch": "2026-04-18T10:21:33.948288Z",
      "apogee_km": 360.47257466050814,
      "perigee_km": 355.43007366280654,
      "latitude_deg": 3.231128085882119e-06,
      "longitude_deg": 167.41081753195317,
      "height_km": 356.34416520423065,
      "semi_major_axis_km": 6736.088324161657,
      "eccentricity": 0.00037429,
      "inclination_deg": 53.0416,
      "raan_deg": 169.353,
      "arg_perigee_deg": 5.6266,
      "mean_anomaly_deg": 354.4792,
      "mean_motion_rev_day": 15.70330632
    },
    {
      "epoch": "2026-04-19T13:51:05.860224Z",
      "apogee_km": 359.97807464497237,
      "perigee_km": 354.76748427958046,
      "latitude_deg": -3.19952039923129e-06,
      "longitude_deg": 108.23058114760585,
      "height_km": 355.70878783086,
      "semi_major_axis_km": 6735.509779462276,
      "eccentricity": 0.0003868,
      "inclination_deg": 53.0414,
      "raan_deg": 163.6848,
      "arg_perigee_deg": 10.0137,
      "mean_anomaly_deg": 350.0956,
      "mean_motion_rev_day": 15.70532961
    },
    {
      "epoch": "2026-04-20T09:42:18.687744Z",
      "apogee_km": 359.7271422507429,
      "perigee_km": 354.43178036453355,
      "latitude_deg": 2.431417721173947e-06,
      "longitude_deg": 165.51577906653839,
      "height_km": 355.4045303663117,
      "semi_major_axis_km": 6735.2164613076375,
      "eccentricity": 0.00039311,
      "inclination_deg": 53.0405,
      "raan_deg": 159.5888,
      "arg_perigee_deg": 13.3457,
      "mean_anomaly_deg": 346.7663,
      "mean_motion_rev_day": 15.70635557
    },
    {
      "epoch": "2026-04-21T08:36:40.472064Z",
      "apogee_km": 359.40041062892396,
      "perigee_km": 353.8249807458524,
      "latitude_deg": -1.5443848742398081e-06,
      "longitude_deg": 176.25968773932314,
      "height_km": 354.81527342794817,
      "semi_major_axis_km": 6734.749695687388,
      "eccentricity": 0.00041393,
      "inclination_deg": 53.0405,
      "raan_deg": 154.8642,
      "arg_perigee_deg": 14.5292,
      "mean_anomaly_deg": 345.5843,
      "mean_motion_rev_day": 15.70798844
    },
    {
      "epoch": "2026-04-22T19:43:46.492896Z",
      "apogee_km": 358.886464528935,
      "perigee_km": 353.1274246275316,
      "latitude_deg": -1.1598526859405626e-05,
      "longitude_deg": 0.7968308010715863,
      "height_km": 354.1963950555571,
      "semi_major_axis_km": 6734.143944578233,
      "eccentricity": 0.0004276,
      "inclination_deg": 53.0408,
      "raan_deg": 147.6187,
      "arg_perigee_deg": 19.6837,
      "mean_anomaly_deg": 340.4344,
      "mean_motion_rev_day": 15.71010794
    },
    {
      "epoch": "2026-04-23T06:25:00.607296Z",
      "apogee_km": 358.7032555716087,
      "perigee_km": 352.9410067430781,
      "latitude_deg": 4.424749923696395e-05,
      "longitude_deg": -162.15654824722958,
      "height_km": 354.0232627842541,
      "semi_major_axis_km": 6733.959131157343,
      "eccentricity": 0.00042785,
      "inclination_deg": 53.0406,
      "raan_deg": 145.413,
      "arg_perigee_deg": 20.453,
      "mean_anomaly_deg": 339.6658,
      "mean_motion_rev_day": 15.71075469
    },
    {
      "epoch": "2026-04-24T08:22:11.186112Z",
      "apogee_km": 358.3316077161908,
      "perigee_km": 352.3832387427092,
      "latitude_deg": 2.4733836646654973e-05,
      "longitude_deg": 162.12750782270373,
      "height_km": 353.5502338648061,
      "semi_major_axis_km": 6733.494423229449,
      "eccentricity": 0.0004417,
      "inclination_deg": 53.0409,
      "raan_deg": 140.057,
      "arg_perigee_deg": 24.4512,
      "mean_anomaly_deg": 335.6714,
      "mean_motion_rev_day": 15.71238112
    },
    {
      "epoch": "2026-04-25T17:57:05.040000Z",
      "apogee_km": 357.6283109834749,
      "perigee_km": 351.615957076785,
      "latitude_deg": -2.3363466398272074e-05,
      "longitude_deg": 10.090031627569827,
      "height_km": 352.8764461268652,
      "semi_major_axis_km": 6732.75913403013,
      "eccentricity": 0.0004465,
      "inclination_deg": 53.0399,
      "raan_deg": 133.1231,
      "arg_perigee_deg": 28.3547,
      "mean_anomaly_deg": 331.7712,
      "mean_motion_rev_day": 15.71495513
    },
    {
      "epoch": "2026-04-26T10:44:24.077760Z",
      "apogee_km": 357.1511147880219,
      "perigee_km": 351.2154972670096,
      "latitude_deg": 1.4098896083068e-05,
      "longitude_deg": 114.1038517027147,
      "height_km": 352.55423481345133,
      "semi_major_axis_km": 6732.3203060275155,
      "eccentricity": 0.00044083,
      "inclination_deg": 53.0402,
      "raan_deg": 129.6557,
      "arg_perigee_deg": 31.5656,
      "mean_anomaly_deg": 328.5625,
      "mean_motion_rev_day": 15.71649166
    },
    {
      "epoch": "2026-04-27T17:15:38.281248Z",
      "apogee_km": 356.43035026786856,
      "perigee_km": 350.41637424023156,
      "latitude_deg": 2.691709712280869e-06,
      "longitude_deg": 8.736025866310094,
      "height_km": 351.89657250845687,
      "semi_major_axis_km": 6731.56036225405,
      "eccentricity": 0.0004467,
      "inclination_deg": 53.0398,
      "raan_deg": 123.3505,
      "arg_perigee_deg": 36.2179,
      "mean_anomaly_deg": 323.914,
      "mean_motion_rev_day": 15.71915315
    },
    {
      "epoch": "2026-04-28T06:59:35.643264Z",
      "apogee_km": 356.03049123753317,
      "perigee_km": 350.14336279096733,
      "latitude_deg": 1.0683204988827012e-05,
      "longitude_deg": 159.3447460182146,
      "height_km": 351.69320586323056,
      "semi_major_axis_km": 6731.22392701425,
      "eccentricity": 0.0004373,
      "inclination_deg": 53.0397,
      "raan_deg": 120.5122,
      "arg_perigee_deg": 38.8393,
      "mean_anomaly_deg": 321.2938,
      "mean_motion_rev_day": 15.72033166
    },
    {
      "epoch": "2026-04-29T04:21:11.264832Z",
      "apogee_km": 355.56487597080377,
      "perigee_km": 349.6334820204265,
      "latitude_deg": 4.196924701292854e-05,
      "longitude_deg": -166.3461729359112,
      "height_km": 351.2779656302106,
      "semi_major_axis_km": 6730.736178995615,
      "eccentricity": 0.00044062,
      "inclination_deg": 53.0396,
      "raan_deg": 116.0969,
      "arg_perigee_deg": 41.5336,
      "mean_anomaly_deg": 318.6016,
      "mean_motion_rev_day": 15.72204047
    },
    {
      "epoch": "2026-04-30T06:17:13.345728Z",
      "apogee_km": 354.8265387909378,
      "perigee_km": 349.1705328866192,
      "latitude_deg": 1.740983803318397e-05,
      "longitude_deg": 158.21667047976976,
      "height_km": 350.998810008703,
      "semi_major_axis_km": 6730.135535838778,
      "eccentricity": 0.0004202,
      "inclination_deg": 53.0394,
      "raan_deg": 110.7335,
      "arg_perigee_deg": 47.8368,
      "mean_anomaly_deg": 312.3006,
      "mean_motion_rev_day": 15.72414523
    },
    {
      "epoch": "2026-05-02T10:08:34.316160Z",
      "apogee_km": 353.271055485684,
      "perigee_km": 347.77912148906034,
      "latitude_deg": 2.3169145880331684e-05,
      "longitude_deg": 87.5230522922938,
      "height_km": 349.98611987904144,
      "semi_major_axis_km": 6728.662088487372,
      "eccentricity": 0.0004081,
      "inclination_deg": 53.0403,
      "raan_deg": 100.0069,
      "arg_perigee_deg": 58.44,
      "mean_anomaly_deg": 301.7016,
      "mean_motion_rev_day": 15.72931044
    }
  ]
}